[
    {
        "OBJECT_NAME": "GOMX-4B",
        "OBJECT_ID": "2018-015E",
        "EPOCH": "2023-01-02T10:47:31.986528",
        "MEAN_MOTION": 15.3017144,
        "ECCENTRICITY": 0.0017554,
        "INCLINATION": 97.5558,
        "RA_OF_ASC_NODE": 149.4272,
        "ARG_OF_PERICENTER": 75.4525,
        "MEAN_ANOMALY": 284.8661,
        "EPHEMERIS_TYPE": 0,
        "CLASSIFICATION_TYPE": "U",
        "NORAD_CAT_ID": 43196,
        "ELEMENT_SET_NO": 999,
        "REV_AT_EPOCH": 27355,
        "BSTAR": 0.0003848,
        "MEAN_MOTION_DOT": 0.00011211,
        "MEAN_MOTION_DDOT": 0
    },
    {
        "OBJECT_NAME": "GOMX-4A",
        "OBJECT_ID": "2018-015F",
        "EPOCH": "2023-01-02T13:37:33.081600",
        "MEAN_MOTION": 15.32384245,
        "ECCENTRICITY": 0.0016925,
        "INCLINATION": 97.5561,
        "RA_OF_ASC_NODE": 150.9368,
        "ARG_OF_PERICENTER": 72.6918,
        "MEAN_ANOMALY": 356.7382,
        "EPHEMERIS_TYPE": 0,
        "CLASSIFICATION_TYPE": "U",
        "NORAD_CAT_ID": 43197,
        "ELEMENT_SET_NO": 999,
        "REV_AT_EPOCH": 27367,
        "BSTAR": 0.0004202,
        "MEAN_MOTION_DOT": 0.00013124,
        "MEAN_MOTION_DDOT": 0
    },
    {
        "OBJECT_NAME": "AEROCUBE 12A",
        "OBJECT_ID": "2018-046C",
        "EPOCH": "2023-01-02T12:14:18.351168",
        "MEAN_MOTION": 15.50287536,
        "ECCENTRICITY": 0.0007128,
        "INCLINATION": 51.6334,
        "RA_OF_ASC_NODE": 287.0001,
        "ARG_OF_PERICENTER": 61.911,
        "MEAN_ANOMALY": 298.2598,
        "EPHEMERIS_TYPE": 0,
        "CLASSIFICATION_TYPE": "U",
        "NORAD_CAT_ID": 43556,
        "ELEMENT_SET_NO": 999,
        "REV_AT_EPOCH": 25006,
        "BSTAR": 0.00077997,
        "MEAN_MOTION_DOT": 0.00044803,
        "MEAN_MOTION_DDOT": 0
    },
    {
        "OBJECT_NAME": "AEROCUBE 12B",
        "OBJECT_ID": "2018-046D",
        "EPOCH": "2023-01-02T12:17:48.329952",
        "MEAN_MOTION": 15.45442187,
        "ECCENTRICITY": 0.0007499,
        "INCLINATION": 51.6352,
        "RA_OF_ASC_NODE": 295.9149,
        "ARG_OF_PERICENTER": 50.805,
        "MEAN_ANOMALY": 309.3602,
        "EPHEMERIS_TYPE": 0,
        "CLASSIFICATION_TYPE": "U",
        "NORAD_CAT_ID": 43557,
        "ELEMENT_SET_NO": 999,
        "REV_AT_EPOCH": 24989,
        "BSTAR": 0.00060933,
        "MEAN_MOTION_DOT": 0.00029376,
        "MEAN_MOTION_DDOT": 0
    },
    {
        "OBJECT_NAME": "SURFSAT",
        "OBJECT_ID": "2018-070B",
        "EPOCH": "2023-01-02T14:00:41.913216",
        "MEAN_MOTION": 15.88456312,
        "ECCENTRICITY": 0.0005437,
        "INCLINATION": 92.9933,
        "RA_OF_ASC_NODE": 184.2648,
        "ARG_OF_PERICENTER": 313.9629,
        "MEAN_ANOMALY": 46.1203,
        "EPHEMERIS_TYPE": 0,
        "CLASSIFICATION_TYPE": "U",
        "NORAD_CAT_ID": 43614,
        "ELEMENT_SET_NO": 999,
        "REV_AT_EPOCH": 24222,
        "BSTAR": 0.00097483,
        "MEAN_MOTION_DOT": 0.00268164,
        "MEAN_MOTION_DDOT": 2.5646e-5
    },
    {
        "OBJECT_NAME": "CP7 (DAVE)",
        "OBJECT_ID": "2018-070C",
        "EPOCH": "2023-01-02T18:29:28.722912",
        "MEAN_MOTION": 15.79864545,
        "ECCENTRICITY": 0.0006227,
        "INCLINATION": 92.9953,
        "RA_OF_ASC_NODE": 183.8081,
        "ARG_OF_PERICENTER": 314.3094,
        "MEAN_ANOMALY": 45.7671,
        "EPHEMERIS_TYPE": 0,
        "CLASSIFICATION_TYPE": "U",
        "NORAD_CAT_ID": 43615,
        "ELEMENT_SET_NO": 999,
        "REV_AT_EPOCH": 24216,
        "BSTAR": 0.00087553,
        "MEAN_MOTION_DOT": 0.00163558,
        "MEAN_MOTION_DDOT": 0
    },
    {
        "OBJECT_NAME": "CUBEBEL-1 (BSUSAT-1)",
        "OBJECT_ID": "2018-083E",
        "EPOCH": "2023-01-02T20:41:15.276768",
        "MEAN_MOTION": 15.27698194,
        "ECCENTRICITY": 0.0012398,
        "INCLINATION": 97.4032,
        "RA_OF_ASC_NODE": 34.6154,
        "ARG_OF_PERICENTER": 358.2791,
        "MEAN_ANOMALY": 127.0478,
        "EPHEMERIS_TYPE": 0,
        "CLASSIFICATION_TYPE": "U",
        "NORAD_CAT_ID": 43666,
        "ELEMENT_SET_NO": 999,
        "REV_AT_EPOCH": 23187,
        "BSTAR": 0.00068523,
        "MEAN_MOTION_DOT": 0.0001854,
        "MEAN_MOTION_DDOT": 0
    },
    {
        "OBJECT_NAME": "CICERO 10",
        "OBJECT_ID": "2018-088A",
        "EPOCH": "2023-01-02T14:08:10.118400",
        "MEAN_MOTION": 15.28732497,
        "ECCENTRICITY": 0.0013609,
        "INCLINATION": 85.0347,
        "RA_OF_ASC_NODE": 183.842,
        "ARG_OF_PERICENTER": 123.6629,
        "MEAN_ANOMALY": 236.5917,
        "EPHEMERIS_TYPE": 0,
        "CLASSIFICATION_TYPE": "U",
        "NORAD_CAT_ID": 43690,
        "ELEMENT_SET_NO": 999,
        "REV_AT_EPOCH": 23013,
        "BSTAR": 0.00038683,
        "MEAN_MOTION_DOT": 0.0001087,
        "MEAN_MOTION_DDOT": 0
    },
    {
        "OBJECT_NAME": "IRVINE01",
        "OBJECT_ID": "2018-088D",
        "EPOCH": "2023-01-02T13:11:17.662272",
        "MEAN_MOTION": 15.69547056,
        "ECCENTRICITY": 0.000655,
        "INCLINATION": 85.0161,
        "RA_OF_ASC_NODE": 173.6574,
        "ARG_OF_PERICENTER": 27.1435,
        "MEAN_ANOMALY": 333.0174,
        "EPHEMERIS_TYPE": 0,
        "CLASSIFICATION_TYPE": "U",
        "NORAD_CAT_ID": 43693,
        "ELEMENT_SET_NO": 999,
        "REV_AT_EPOCH": 23102,
        "BSTAR": 0.0018713,
        "MEAN_MOTION_DOT": 0.00225961,
        "MEAN_MOTION_DDOT": 0
    },
    {
        "OBJECT_NAME": "PROXIMA I",
        "OBJECT_ID": "2018-088E",
        "EPOCH": "2023-01-02T10:59:29.856480",
        "MEAN_MOTION": 15.3051386,
        "ECCENTRICITY": 0.001706,
        "INCLINATION": 85.0283,
        "RA_OF_ASC_NODE": 180.1028,
        "ARG_OF_PERICENTER": 94.129,
        "MEAN_ANOMALY": 266.1906,
        "EPHEMERIS_TYPE": 0,
        "CLASSIFICATION_TYPE": "U",
        "NORAD_CAT_ID": 43694,
        "ELEMENT_SET_NO": 999,
        "REV_AT_EPOCH": 23036,
        "BSTAR": 0.00051348,
        "MEAN_MOTION_DOT": 0.00015258,
        "MEAN_MOTION_DDOT": 0
    },
    {
        "OBJECT_NAME": "PROXIMA II",
        "OBJECT_ID": "2018-088G",
        "EPOCH": "2023-01-02T18:56:50.757504",
        "MEAN_MOTION": 15.30467005,
        "ECCENTRICITY": 0.0017144,
        "INCLINATION": 85.0282,
        "RA_OF_ASC_NODE": 179.9102,
        "ARG_OF_PERICENTER": 93.015,
        "MEAN_ANOMALY": 267.3059,
        "EPHEMERIS_TYPE": 0,
        "CLASSIFICATION_TYPE": "U",
        "NORAD_CAT_ID": 43696,
        "ELEMENT_SET_NO": 999,
        "REV_AT_EPOCH": 23040,
        "BSTAR": 0.00043441,
        "MEAN_MOTION_DOT": 0.00012893,
        "MEAN_MOTION_DDOT": 0
    },
    {
        "OBJECT_NAME": "FACSAT-1",
        "OBJECT_ID": "2018-096C",
        "EPOCH": "2023-01-02T20:25:13.961856",
        "MEAN_MOTION": 15.47339713,
        "ECCENTRICITY": 0.0011123,
        "INCLINATION": 97.3337,
        "RA_OF_ASC_NODE": 88.5607,
        "ARG_OF_PERICENTER": 54.8856,
        "MEAN_ANOMALY": 77.428,
        "EPHEMERIS_TYPE": 0,
        "CLASSIFICATION_TYPE": "U",
        "NORAD_CAT_ID": 43721,
        "ELEMENT_SET_NO": 999,
        "REV_AT_EPOCH": 22867,
        "BSTAR": 0.0010289,
        "MEAN_MOTION_DOT": 0.00052864,
        "MEAN_MOTION_DDOT": 0
    }
]