GOMX-4B                 
1 43196U 18015E   23002.44967577  .00011211  00000+0  38480-3 0  9995
2 43196  97.5558 149.4272 0017554  75.4525 284.8661 15.30171440273556
GOMX-4A                 
1 43197U 18015F   23002.56774400  .00013124  00000+0  42020-3 0  9990
2 43197  97.5561 150.9368 0016925  72.6918 356.7382 15.32384245273673
AEROCUBE 12A            
1 43556U 18046C   23002.50993462  .00044803  00000+0  77997-3 0  9997
2 43556  51.6334 287.0001 0007128  61.9110 298.2598 15.50287536250069
AEROCUBE 12B            
1 43557U 18046D   23002.51236493  .00029376  00000+0  60933-3 0  9993
2 43557  51.6352 295.9149 0007499  50.8050 309.3602 15.45442187249890
SURFSAT                 
1 43614U 18070B   23002.58381844  .00268164  25646-4  97483-3 0  9990
2 43614  92.9933 184.2648 0005437 313.9629  46.1203 15.88456312242221
CP7 (DAVE)              
1 43615U 18070C   23002.77047133  .00163558  00000+0  87553-3 0  9992
2 43615  92.9953 183.8081 0006227 314.3094  45.7671 15.79864545242167
CUBEBEL-1 (BSUSAT-1)    
1 43666U 18083E   23002.86198237  .00018540  00000+0  68523-3 0  9990
2 43666  97.4032  34.6154 0012398 358.2791 127.0478 15.27698194231875
CICERO 10               
1 43690U 18088A   23002.58900600  .00010870  00000+0  38683-3 0  9998
2 43690  85.0347 183.8420 0013609 123.6629 236.5917 15.28732497230135
IRVINE01                
1 43693U 18088D   23002.54950998  .00225961  00000+0  18713-2 0  9992
2 43693  85.0161 173.6574 0006550  27.1435 333.0174 15.69547056231026
PROXIMA I               
1 43694U 18088E   23002.45798445  .00015258  00000+0  51348-3 0  9998
2 43694  85.0283 180.1028 0017060  94.1290 266.1906 15.30513860230369
PROXIMA II              
1 43696U 18088G   23002.78947636  .00012893  00000+0  43441-3 0  9991
2 43696  85.0282 179.9102 0017144  93.0150 267.3059 15.30467005230401
FACSAT-1                
1 43721U 18096C   23002.85085604  .00052864  00000+0  10289-2 0  9990
2 43721  97.3337  88.5607 0011123  54.8856  77.4280 15.47339713228675
